HULIANWANG DIGUI-97     
1 66413U 25258B   26066.59647670 -.00000060  00000+0  13882-3 0  9997
2 66413  50.0013 300.2553 0000440 105.1143 254.9778 13.29332715 16210
HULIANWANG DIGUI-98     
1 66414U 25258C   26066.66327407 -.00000070  00000+0  11572-3 0  9994
2 66414  50.0050 299.9847 0000510 116.9013 243.1912 13.29334239 16220
HULIANWANG DIGUI-99     
1 66415U 25258D   26066.55471325 -.00000061  00000+0  13637-3 0  9996
2 66415  50.0049 300.0749 0000369  97.3066 262.7848 13.29331698 16205
HULIANWANG DIGUI-100    
1 66416U 25258E   26066.65492490 -.00000065  00000+0  12826-3 0  9997
2 66416  50.0052 299.9435 0000367  98.4583 261.6330 13.29334761 16233
HULIANWANG DIGUI-101    
1 66417U 25258F   26066.64658750 -.00000072  00000+0  11163-3 0  9991
2 66417  50.0002 299.8407 0000389  93.7973 266.2944 13.29332861 16233
HULIANWANG DIGUI-102    
1 66418U 25258G   26066.62149374 -.00000066  00000+0  12560-3 0  9992
2 66418  50.0016 299.7214 0000391 109.4688 250.6226 13.29334778 16223
HULIANWANG DIGUI-103    
1 66419U 25258H   26066.61316260 -.00000062  00000+0  13405-3 0  9997
2 66419  50.0009 299.6700 0000328  93.8969 266.1941 13.29333849 16227
HULIANWANG DIGUI-104    
1 66420U 25258J   26066.60482506 -.00000062  00000+0  13290-3 0  9997
2 66420  50.0026 299.6494 0000428 114.6199 245.4717 13.29333266 16219
HULIANWANG DIGUI-105    
1 66915U 25285A   26066.60873132 -.00000078  00000+0  98395-4 0  9992
2 66915  50.0045 150.5270 0000108 306.5260  53.5602 13.29330782 12545
HULIANWANG DIGUI-106    
1 66916U 25285B   26063.81896777 -.00628381  00000+0 -14099+1 0  9992
2 66916  50.0043 160.4766 0007099  27.2323 332.8921 13.29477796 12170
HULIANWANG DIGUI-107    
1 66917U 25285C   26066.59203023 -.00000211  00000+0 -18696-3 0  9993
2 66917  50.0031 150.4219 0000089 310.2369  49.8496 13.29329995 12547
HULIANWANG DIGUI-108    
1 66918U 25285D   26066.58366795 -.00000185  00000+0 -13034-3 0  9990
2 66918  50.0052 150.3958 0000074 312.1449  47.9417 13.29330662 12549
HULIANWANG DIGUI-109    
1 66919U 25285E   26066.57531627 -.00000184  00000+0 -13011-3 0  9992
2 66919  50.0077 150.3728 0000089 304.9102  55.1762 13.29330400 12558
HULIANWANG DIGUI-110    
1 66920U 25285F   26066.56696945 -.00000089  00000+0  76317-4 0  9990
2 66920  50.0100 150.3556 0000071 302.4645  57.6220 13.29330295 12549
HULIANWANG DIGUI-111    
1 66921U 25285G   26066.63379390 -.00000178  00000+0 -11545-3 0  9992
2 66921  50.0125 150.0562 0000087 299.7535  60.3329 13.29330033 12556
HULIANWANG DIGUI-112    
1 66922U 25285H   26066.62544001 -.00000172  00000+0 -10251-3 0  9992
2 66922  50.0088 149.9845 0000109 311.6115  48.4747 13.29330573 12559
