[{"OBJECT_NAME":"HULIANWANG DIGUI-97","OBJECT_ID":"2025-258B","EPOCH":"2026-03-07T14:18:55.586880","MEAN_MOTION":13.29332715,"ECCENTRICITY":4.406e-5,"INCLINATION":50.0013,"RA_OF_ASC_NODE":300.2553,"ARG_OF_PERICENTER":105.1143,"MEAN_ANOMALY":254.9778,"EPHEMERIS_TYPE":0,"CLASSIFICATION_TYPE":"U","NORAD_CAT_ID":66413,"ELEMENT_SET_NO":999,"REV_AT_EPOCH":1621,"BSTAR":0.00013881556,"MEAN_MOTION_DOT":-6.0e-7,"MEAN_MOTION_DDOT":0},{"OBJECT_NAME":"HULIANWANG DIGUI-98","OBJECT_ID":"2025-258C","EPOCH":"2026-03-07T15:55:06.879648","MEAN_MOTION":13.29334239,"ECCENTRICITY":5.108e-5,"INCLINATION":50.005,"RA_OF_ASC_NODE":299.9847,"ARG_OF_PERICENTER":116.9013,"MEAN_ANOMALY":243.1912,"EPHEMERIS_TYPE":0,"CLASSIFICATION_TYPE":"U","NORAD_CAT_ID":66414,"ELEMENT_SET_NO":999,"REV_AT_EPOCH":1622,"BSTAR":0.00011572425,"MEAN_MOTION_DOT":-7.0e-7,"MEAN_MOTION_DDOT":0},{"OBJECT_NAME":"HULIANWANG DIGUI-99","OBJECT_ID":"2025-258D","EPOCH":"2026-03-07T13:18:47.224800","MEAN_MOTION":13.29331698,"ECCENTRICITY":3.69e-5,"INCLINATION":50.0049,"RA_OF_ASC_NODE":300.0749,"ARG_OF_PERICENTER":97.3066,"MEAN_ANOMALY":262.7848,"EPHEMERIS_TYPE":0,"CLASSIFICATION_TYPE":"U","NORAD_CAT_ID":66415,"ELEMENT_SET_NO":999,"REV_AT_EPOCH":1620,"BSTAR":0.00013637433,"MEAN_MOTION_DOT":-6.1e-7,"MEAN_MOTION_DDOT":0},{"OBJECT_NAME":"HULIANWANG DIGUI-100","OBJECT_ID":"2025-258E","EPOCH":"2026-03-07T15:43:05.511360","MEAN_MOTION":13.29334761,"ECCENTRICITY":3.676e-5,"INCLINATION":50.0052,"RA_OF_ASC_NODE":299.9435,"ARG_OF_PERICENTER":98.4583,"MEAN_ANOMALY":261.633,"EPHEMERIS_TYPE":0,"CLASSIFICATION_TYPE":"U","NORAD_CAT_ID":66416,"ELEMENT_SET_NO":999,"REV_AT_EPOCH":1623,"BSTAR":0.0001282586,"MEAN_MOTION_DOT":-6.5e-7,"MEAN_MOTION_DDOT":0},{"OBJECT_NAME":"HULIANWANG DIGUI-101","OBJECT_ID":"2025-258F","EPOCH":"2026-03-07T15:31:05.160000","MEAN_MOTION":13.29332861,"ECCENTRICITY":3.891e-5,"INCLINATION":50.0002,"RA_OF_ASC_NODE":299.8407,"ARG_OF_PERICENTER":93.7973,"MEAN_ANOMALY":266.2944,"EPHEMERIS_TYPE":0,"CLASSIFICATION_TYPE":"U","NORAD_CAT_ID":66417,"ELEMENT_SET_NO":999,"REV_AT_EPOCH":1623,"BSTAR":0.00011162882,"MEAN_MOTION_DOT":-7.2e-7,"MEAN_MOTION_DDOT":0},{"OBJECT_NAME":"HULIANWANG DIGUI-102","OBJECT_ID":"2025-258G","EPOCH":"2026-03-07T14:54:57.059136","MEAN_MOTION":13.29334778,"ECCENTRICITY":3.915e-5,"INCLINATION":50.0016,"RA_OF_ASC_NODE":299.7214,"ARG_OF_PERICENTER":109.4688,"MEAN_ANOMALY":250.6226,"EPHEMERIS_TYPE":0,"CLASSIFICATION_TYPE":"U","NORAD_CAT_ID":66418,"ELEMENT_SET_NO":999,"REV_AT_EPOCH":1622,"BSTAR":0.00012560432,"MEAN_MOTION_DOT":-6.6e-7,"MEAN_MOTION_DDOT":0},{"OBJECT_NAME":"HULIANWANG DIGUI-103","OBJECT_ID":"2025-258H","EPOCH":"2026-03-07T14:42:57.248640","MEAN_MOTION":13.29333849,"ECCENTRICITY":3.288e-5,"INCLINATION":50.0009,"RA_OF_ASC_NODE":299.67,"ARG_OF_PERICENTER":93.8969,"MEAN_ANOMALY":266.1941,"EPHEMERIS_TYPE":0,"CLASSIFICATION_TYPE":"U","NORAD_CAT_ID":66419,"ELEMENT_SET_NO":999,"REV_AT_EPOCH":1622,"BSTAR":0.00013405244,"MEAN_MOTION_DOT":-6.2e-7,"MEAN_MOTION_DDOT":0},{"OBJECT_NAME":"HULIANWANG DIGUI-104","OBJECT_ID":"2025-258J","EPOCH":"2026-03-07T14:30:56.885184","MEAN_MOTION":13.29333266,"ECCENTRICITY":4.284e-5,"INCLINATION":50.0026,"RA_OF_ASC_NODE":299.6494,"ARG_OF_PERICENTER":114.6199,"MEAN_ANOMALY":245.4717,"EPHEMERIS_TYPE":0,"CLASSIFICATION_TYPE":"U","NORAD_CAT_ID":66420,"ELEMENT_SET_NO":999,"REV_AT_EPOCH":1621,"BSTAR":0.0001329001,"MEAN_MOTION_DOT":-6.2e-7,"MEAN_MOTION_DDOT":0},{"OBJECT_NAME":"HULIANWANG DIGUI-105","OBJECT_ID":"2025-285A","EPOCH":"2026-03-07T14:36:34.386048","MEAN_MOTION":13.29330782,"ECCENTRICITY":1.081e-5,"INCLINATION":50.0045,"RA_OF_ASC_NODE":150.527,"ARG_OF_PERICENTER":306.526,"MEAN_ANOMALY":53.5602,"EPHEMERIS_TYPE":0,"CLASSIFICATION_TYPE":"U","NORAD_CAT_ID":66915,"ELEMENT_SET_NO":999,"REV_AT_EPOCH":1254,"BSTAR":9.8395113e-5,"MEAN_MOTION_DOT":-7.8e-7,"MEAN_MOTION_DDOT":0},{"OBJECT_NAME":"HULIANWANG DIGUI-106","OBJECT_ID":"2025-285B","EPOCH":"2026-03-04T19:39:18.815328","MEAN_MOTION":13.29477796,"ECCENTRICITY":0.00070993,"INCLINATION":50.0043,"RA_OF_ASC_NODE":160.4766,"ARG_OF_PERICENTER":27.2323,"MEAN_ANOMALY":332.8921,"EPHEMERIS_TYPE":0,"CLASSIFICATION_TYPE":"U","NORAD_CAT_ID":66916,"ELEMENT_SET_NO":999,"REV_AT_EPOCH":1217,"BSTAR":-1.4099124,"MEAN_MOTION_DOT":-0.00628381,"MEAN_MOTION_DDOT":0},{"OBJECT_NAME":"HULIANWANG DIGUI-107","OBJECT_ID":"2025-285C","EPOCH":"2026-03-07T14:12:31.411872","MEAN_MOTION":13.29329995,"ECCENTRICITY":8.9e-6,"INCLINATION":50.0031,"RA_OF_ASC_NODE":150.4219,"ARG_OF_PERICENTER":310.2369,"MEAN_ANOMALY":49.8496,"EPHEMERIS_TYPE":0,"CLASSIFICATION_TYPE":"U","NORAD_CAT_ID":66917,"ELEMENT_SET_NO":999,"REV_AT_EPOCH":1254,"BSTAR":-0.00018696233,"MEAN_MOTION_DOT":-2.11e-6,"MEAN_MOTION_DDOT":0},{"OBJECT_NAME":"HULIANWANG DIGUI-108","OBJECT_ID":"2025-285D","EPOCH":"2026-03-07T14:00:28.910880","MEAN_MOTION":13.29330662,"ECCENTRICITY":7.49e-6,"INCLINATION":50.0052,"RA_OF_ASC_NODE":150.3958,"ARG_OF_PERICENTER":312.1449,"MEAN_ANOMALY":47.9417,"EPHEMERIS_TYPE":0,"CLASSIFICATION_TYPE":"U","NORAD_CAT_ID":66918,"ELEMENT_SET_NO":999,"REV_AT_EPOCH":1254,"BSTAR":-0.00013033702,"MEAN_MOTION_DOT":-1.85e-6,"MEAN_MOTION_DDOT":0},{"OBJECT_NAME":"HULIANWANG DIGUI-109","OBJECT_ID":"2025-285E","EPOCH":"2026-03-07T13:48:27.325728","MEAN_MOTION":13.293304,"ECCENTRICITY":8.96e-6,"INCLINATION":50.0077,"RA_OF_ASC_NODE":150.3728,"ARG_OF_PERICENTER":304.9102,"MEAN_ANOMALY":55.1762,"EPHEMERIS_TYPE":0,"CLASSIFICATION_TYPE":"U","NORAD_CAT_ID":66919,"ELEMENT_SET_NO":999,"REV_AT_EPOCH":1255,"BSTAR":-0.00013011379,"MEAN_MOTION_DOT":-1.84e-6,"MEAN_MOTION_DDOT":0},{"OBJECT_NAME":"HULIANWANG DIGUI-110","OBJECT_ID":"2025-285F","EPOCH":"2026-03-07T13:36:26.160480","MEAN_MOTION":13.29330295,"ECCENTRICITY":7.14e-6,"INCLINATION":50.01,"RA_OF_ASC_NODE":150.3556,"ARG_OF_PERICENTER":302.4645,"MEAN_ANOMALY":57.622,"EPHEMERIS_TYPE":0,"CLASSIFICATION_TYPE":"U","NORAD_CAT_ID":66920,"ELEMENT_SET_NO":999,"REV_AT_EPOCH":1254,"BSTAR":7.6316546e-5,"MEAN_MOTION_DOT":-8.9e-7,"MEAN_MOTION_DDOT":0},{"OBJECT_NAME":"HULIANWANG DIGUI-111","OBJECT_ID":"2025-285G","EPOCH":"2026-03-07T15:12:39.792960","MEAN_MOTION":13.29330033,"ECCENTRICITY":8.75e-6,"INCLINATION":50.0125,"RA_OF_ASC_NODE":150.0562,"ARG_OF_PERICENTER":299.7535,"MEAN_ANOMALY":60.3329,"EPHEMERIS_TYPE":0,"CLASSIFICATION_TYPE":"U","NORAD_CAT_ID":66921,"ELEMENT_SET_NO":999,"REV_AT_EPOCH":1255,"BSTAR":-0.00011545234,"MEAN_MOTION_DOT":-1.78e-6,"MEAN_MOTION_DDOT":0},{"OBJECT_NAME":"HULIANWANG DIGUI-112","OBJECT_ID":"2025-285H","EPOCH":"2026-03-07T15:00:38.016864","MEAN_MOTION":13.29330573,"ECCENTRICITY":1.092e-5,"INCLINATION":50.0088,"RA_OF_ASC_NODE":149.9845,"ARG_OF_PERICENTER":311.6115,"MEAN_ANOMALY":48.4747,"EPHEMERIS_TYPE":0,"CLASSIFICATION_TYPE":"U","NORAD_CAT_ID":66922,"ELEMENT_SET_NO":999,"REV_AT_EPOCH":1255,"BSTAR":-0.00010250602,"MEAN_MOTION_DOT":-1.72e-6,"MEAN_MOTION_DDOT":0}]
